{
  "norad_id": 57785,
  "name": "STARLINK-30381",
  "history": [
    {
      "epoch": "2026-03-28T08:55:23.356704",
      "apogee_km": 483.97014187834975,
      "perigee_km": 482.1296970990661,
      "latitude_deg": 34.59731943268024,
      "longitude_deg": -5.807381439954042,
      "semi_major_axis_km": 6861.186919488708,
      "eccentricity": 0.00013412,
      "inclination_deg": 43.0024,
      "raan_deg": 88.9084,
      "arg_perigee_deg": 267.014,
      "mean_anomaly_deg": 93.0559,
      "mean_motion_rev_day": 15.27579725
    }
  ]
}