{"fetched_at":"2026-03-29T16:36:15Z","count":15609,"tles":[{"name":"STARLINK-30381","line1":"1 57785U 23134Q   26087.37179811  .00000194  00000+0  16581-4 0  9993","line2":"2 57785  43.0024  88.9084 0001341 267.0140  93.0559 15.27579725142360","category":"Starlink"}]}